TOMORROW-S2             
1 60485U 24149T   26068.75188364  .00008133  00000+0  27683-3 0  9990
2 60485  97.3857 150.0385 0001648 234.3331 125.7757 15.30674935 86869
STARLINK-34122          
1 64117U 25110X   26068.15174816  .00028563  00000+0  97242-3 0  9993
2 64117  53.1612  29.0050 0001548  82.4632 277.6544 15.30212775 45803
